{
    "links": {
        "self": "http://www.neowsapp.com/rest/v1/neo/3407483?api_key=iIulBulltgU6a56xZRHN4H3l9WmuAYTsLGpBGhQ2"
    },
    "id": "3407483",
    "neo_reference_id": "3407483",
    "name": "(2008 FF5)",
    "designation": "2008 FF5",
    "nasa_jpl_url": "http://ssd.jpl.nasa.gov/sbdb.cgi?sstr=3407483",
    "absolute_magnitude_h": 23.1,
    "estimated_diameter": {
        "kilometers": {
            "estimated_diameter_min": 0.063760979,
            "estimated_diameter_max": 0.1425738833
        },
        "meters": {
            "estimated_diameter_min": 63.7609789875,
            "estimated_diameter_max": 142.5738833281
        },
        "miles": {
            "estimated_diameter_min": 0.0396192233,
            "estimated_diameter_max": 0.0885912765
        },
        "feet": {
            "estimated_diameter_min": 209.1895703015,
            "estimated_diameter_max": 467.7620993781
        }
    },
    "is_potentially_hazardous_asteroid": false,
    "close_approach_data": [
        {
            "close_approach_date": "2008-03-23",
            "close_approach_date_full": "2008-Mar-23 08:46",
            "epoch_date_close_approach": 1206261960000,
            "relative_velocity": {
                "kilometers_per_second": "37.0193271155",
                "kilometers_per_hour": "133269.5776156416",
                "miles_per_hour": "82808.5328245635"
            },
            "miss_distance": {
                "astronomical": "0.0772826011",
                "lunar": "30.0629318279",
                "kilometers": "11561312.512619657",
                "miles": "7183866.4750269866"
            },
            "orbiting_body": "Earth"
        }
    ],
    "orbital_data": {
        "orbit_id": "15",
        "orbit_determination_date": "2017-04-06 09:03:54",
        "first_observation_date": "2008-03-28",
        "last_observation_date": "2008-04-08",
        "data_arc_in_days": 11,
        "observations_used": 51,
        "orbit_uncertainty": "9",
        "minimum_orbit_intersection": ".00724627",
        "jupiter_tisserand_invariant": "2.631",
        "epoch_osculation": "2454556.5",
        "eccentricity": ".9651477164286546",
        "semi_major_axis": "2.277592340215457",
        "inclination": "2.621691288677075",
        "ascending_node_longitude": "15.30932972194092",
        "orbital_period": "1255.487569688686",
        "perihelion_distance": ".07937929410111332",
        "perihelion_argument": "19.9123211902883",
        "aphelion_distance": "4.475805386329801",
        "perihelion_time": "2454514.228309554705",
        "mean_anomaly": "12.1210348295839",
        "mean_motion": ".286741190188977",
        "equinox": "J2000",
        "orbit_class": {
            "orbit_class_type": "APO",
            "orbit_class_description": "Near-Earth asteroid orbits which cross the Earth’s orbit similar to that of 1862 Apollo",
            "orbit_class_range": "a (semi-major axis) > 1.0 AU; q (perihelion) < 1.017 AU"
        }
    },
    "is_sentry_object": false
}